{
  "type": "FeatureCollection",
  "features": [
    {
      "type": "Feature",
      "geometry": {
        "type": "Polygon",
        "coordinates": [
          [
            [-77.4338812, 37.5386835],
            [-77.4337623, 37.5386124],
            [-77.4336316, 37.5385341],
            [-77.4334908, 37.5386821],
            [-77.43344, 37.5386517],
            [-77.4334707, 37.5386194],
            [-77.4334485, 37.5386061],
            [-77.4334614, 37.5385925],
            [-77.4333461, 37.5385236],
            [-77.4333351, 37.5385352],
            [-77.4333069, 37.5385183],
            [-77.43327, 37.5385571],
            [-77.4332498, 37.538545],
            [-77.4332033, 37.5385939],
            [-77.4331579, 37.5386417],
            [-77.4331799, 37.5386548],
            [-77.4331419, 37.5386948],
            [-77.4331638, 37.5387079],
            [-77.4331472, 37.5387254],
            [-77.4332613, 37.5387936],
            [-77.4332724, 37.5387819],
            [-77.4333006, 37.5387987],
            [-77.4333315, 37.5387662],
            [-77.4333819, 37.5387963],
            [-77.433302, 37.5388804],
            [-77.4335518, 37.5390297],
            [-77.4336285, 37.5389489],
            [-77.4336817, 37.5389807],
            [-77.4336528, 37.5390111],
            [-77.4336697, 37.5390212],
            [-77.4336535, 37.5390383],
            [-77.433765, 37.539105],
            [-77.433776, 37.5390934],
            [-77.4338086, 37.5391129],
            [-77.4338462, 37.5390733],
            [-77.4338663, 37.5390853],
            [-77.4339532, 37.538994],
            [-77.4339294, 37.5389798],
            [-77.433974, 37.5389329],
            [-77.4339563, 37.5389223],
            [-77.4339725, 37.5389052],
            [-77.4338573, 37.5388363],
            [-77.4338432, 37.5388511],
            [-77.4338186, 37.5388364],
            [-77.4337798, 37.5388771],
            [-77.433727, 37.5388456],
            [-77.4338812, 37.5386835]
          ]
        ]
      },
      "properties": {
        "name": "Virginia State Capitol",
        "cat": "gov",
        "addr": "1000 Bank St · Designed by Thomas Jefferson, 1785",
        "osm_id": "w45088494",
        "osm_name": "Virginia State Capitol"
      }
    },
    {
      "type": "Feature",
      "geometry": {
        "type": "Polygon",
        "coordinates": [
          [
            [-77.4329799, 37.5414335],
            [-77.4335056, 37.5408783],
            [-77.4329425, 37.540543],
            [-77.4324167, 37.5410982],
            [-77.4329799, 37.5414335]
          ]
        ]
      },
      "properties": {
        "name": "Richmond City Hall",
        "cat": "gov",
        "addr": "900 E Broad St · Free observation deck",
        "osm_id": "w113029199",
        "osm_name": "Richmond City Hall"
      }
    },
    {
      "type": "Feature",
      "geometry": {
        "type": "Polygon",
        "coordinates": [
          [
            [-77.4329107, 37.540012],
            [-77.43296, 37.5399595],
            [-77.4332006, 37.5396989],
            [-77.4326961, 37.5394044],
            [-77.43245, 37.5396696],
            [-77.4324062, 37.5397171],
            [-77.4324715, 37.5397549],
            [-77.432833, 37.5399661],
            [-77.4329107, 37.540012]
          ]
        ]
      },
      "properties": {
        "name": "Old City Hall",
        "cat": "gov",
        "addr": "1001 E Broad St · 1894 Victorian Gothic",
        "osm_id": "w113023444",
        "osm_name": "Old City Hall"
      }
    },
    {
      "type": "Feature",
      "geometry": {
        "type": "Point",
        "coordinates": [-77.4338944, 37.5415411]
      },
      "properties": {
        "name": "Library of Virginia",
        "cat": "lib",
        "addr": "800 E Broad St",
        "osm_id": "n13460941957",
        "osm_name": "Library of Virginia"
      }
    },
    {
      "type": "Feature",
      "geometry": {
        "type": "Polygon",
        "coordinates": [
          [
            [-77.4419754, 37.54283],
            [-77.4426417, 37.5432288],
            [-77.442965, 37.5428891],
            [-77.4426414, 37.5426955],
            [-77.4427909, 37.5425308],
            [-77.4424525, 37.5423316],
            [-77.4419754, 37.54283]
          ]
        ]
      },
      "properties": {
        "name": "Richmond Public Library — Main Branch",
        "cat": "lib",
        "addr": "101 E Franklin St · Richmond Public Library Main Library",
        "osm_id": "w264659468",
        "osm_name": "Richmond Public Library"
      }
    },
    {
      "type": "Feature",
      "geometry": {
        "type": "Point",
        "coordinates": [-77.4405861, 37.53568]
      },
      "properties": {
        "name": "Federal Reserve Bank of Richmond",
        "cat": "emp",
        "addr": "701 E Byrd St · 5th Federal Reserve District HQ",
        "osm_id": "n13469071342",
        "osm_name": "Federal Reserve Bank of Richmond"
      }
    },
    {
      "type": "Feature",
      "geometry": {
        "type": "Polygon",
        "coordinates": [
          [
            [-77.4401265, 37.5383977],
            [-77.4402014, 37.5384266],
            [-77.4402846, 37.538341],
            [-77.4402232, 37.5383049],
            [-77.4402964, 37.5382328],
            [-77.4402774, 37.5382233],
            [-77.4403658, 37.5381383],
            [-77.4403316, 37.538108],
            [-77.4402848, 37.5380668],
            [-77.440213, 37.5380118],
            [-77.4401304, 37.5379535],
            [-77.4400202, 37.5378861],
            [-77.4399177, 37.5378345],
            [-77.4398047, 37.5377869],
            [-77.4397451, 37.5377689],
            [-77.4396621, 37.5378519],
            [-77.4397462, 37.5379098],
            [-77.4396842, 37.5379785],
            [-77.4396667, 37.5379702],
            [-77.4395833, 37.5380556],
            [-77.4396355, 37.5381026],
            [-77.4396944, 37.5381508],
            [-77.4397839, 37.5382146],
            [-77.439963, 37.5383238],
            [-77.4400482, 37.5383651],
            [-77.4401265, 37.5383977]
          ]
        ]
      },
      "properties": {
        "name": "Dominion Energy HQ",
        "cat": "emp",
        "addr": "600 E Canal St · Fortune 500 utility",
        "osm_id": "w735392153",
        "osm_name": "Dominion Energy HQ"
      }
    },
    {
      "type": "Feature",
      "geometry": {
        "type": "Polygon",
        "coordinates": [
          [
            [-77.4374028, 37.5387214],
            [-77.4374132, 37.5387576],
            [-77.4376586, 37.5389126],
            [-77.4376961, 37.5389101],
            [-77.4379984, 37.5385926],
            [-77.437987, 37.5385515],
            [-77.4378802, 37.5384861],
            [-77.4380352, 37.5383285],
            [-77.4378805, 37.5382388],
            [-77.4376846, 37.538417],
            [-77.4374028, 37.5387214]
          ]
        ]
      },
      "properties": {
        "name": "Dominion Energy Office",
        "cat": "emp",
        "addr": "707 E Main St",
        "osm_id": "w236488161",
        "osm_name": "Eighth & Main Building"
      }
    },
    {
      "type": "Feature",
      "geometry": {
        "type": "Polygon",
        "coordinates": [
          [
            [-77.4359073, 37.5373818],
            [-77.4358631, 37.5373567],
            [-77.4359487, 37.5379123],
            [-77.4361957, 37.5376378],
            [-77.4361851, 37.5375605],
            [-77.436125, 37.5375255],
            [-77.4361675, 37.5374795],
            [-77.4361936, 37.5374947],
            [-77.4362187, 37.5374676],
            [-77.4362681, 37.5374934],
            [-77.436541, 37.5371947],
            [-77.4364997, 37.5371707],
            [-77.4365297, 37.5371382],
            [-77.4362788, 37.5369921],
            [-77.4362469, 37.5370266],
            [-77.4362049, 37.5370022],
            [-77.4359427, 37.5372854],
            [-77.4359772, 37.5373055],
            [-77.4359411, 37.5373448],
            [-77.4359073, 37.5373818]
          ]
        ]
      },
      "properties": {
        "name": "Truist Bank",
        "cat": "emp",
        "addr": "919 E Main St",
        "osm_id": "w236488177",
        "osm_name": "SunTrust Plaza"
      }
    },
    {
      "type": "Feature",
      "geometry": {
        "type": "Polygon",
        "coordinates": [
          [
            [-77.4296926, 37.5385003],
            [-77.4295089, 37.5386945],
            [-77.4290002, 37.5383994],
            [-77.4289885, 37.5384114],
            [-77.4284355, 37.5389792],
            [-77.4281672, 37.5392547],
            [-77.4276342, 37.5398019],
            [-77.4275188, 37.5399812],
            [-77.4274293, 37.5401828],
            [-77.4273657, 37.5404798],
            [-77.4273069, 37.5411511],
            [-77.4272715, 37.5414004],
            [-77.4272927, 37.5414863],
            [-77.4285009, 37.5420726],
            [-77.4295159, 37.540997],
            [-77.4304462, 37.5413873],
            [-77.4312634, 37.5404928],
            [-77.4321866, 37.5410026],
            [-77.4328413, 37.5403322],
            [-77.4297183, 37.5385153],
            [-77.4296926, 37.5385003]
          ]
        ]
      },
      "properties": {
        "name": "VCU Medical Center",
        "cat": "emp",
        "addr": "Downtown medical campus · Level I trauma · Schools of Medicine, Dentistry, Pharmacy",
        "osm_id": "w516930723",
        "osm_name": "VCU Medical Center"
      }
    },
    {
      "type": "Feature",
      "geometry": {
        "type": "Polygon",
        "coordinates": [
          [
            [-77.4368359, 37.5419766],
            [-77.4368053, 37.5419593],
            [-77.4363938, 37.541717],
            [-77.4364205, 37.5416885],
            [-77.4361545, 37.5415317],
            [-77.4362804, 37.5413975],
            [-77.4362449, 37.5413765],
            [-77.4364856, 37.5411201],
            [-77.4371497, 37.5415159],
            [-77.4371728, 37.5415403],
            [-77.4371713, 37.5416014],
            [-77.4368359, 37.5419766]
          ]
        ]
      },
      "properties": {
        "name": "Dominion Energy Center",
        "cat": "arts",
        "addr": "600 E Grace St · Carpenter Theatre",
        "osm_id": "w224757086",
        "osm_name": "Dominion Energy Center"
      }
    },
    {
      "type": "Feature",
      "geometry": {
        "type": "Polygon",
        "coordinates": [
          [
            [-77.4516871, 37.5464802],
            [-77.4517559, 37.5464807],
            [-77.451756, 37.546474],
            [-77.4522601, 37.5464771],
            [-77.4522601, 37.5464839],
            [-77.4526383, 37.5464865],
            [-77.45264, 37.5463274],
            [-77.4525252, 37.5463266],
            [-77.452528, 37.5460805],
            [-77.4523604, 37.5460793],
            [-77.452361, 37.5460269],
            [-77.4523401, 37.5460268],
            [-77.4523413, 37.5459294],
            [-77.4522651, 37.5459288],
            [-77.452265, 37.5459388],
            [-77.4516963, 37.5459333],
            [-77.4516956, 37.5459797],
            [-77.4516849, 37.5459796],
            [-77.4516828, 37.5461202],
            [-77.451691, 37.5461203],
            [-77.4516889, 37.5462858],
            [-77.4516791, 37.5462857],
            [-77.4516775, 37.5464282],
            [-77.4516877, 37.5464282],
            [-77.4516871, 37.5464802]
          ]
        ]
      },
      "properties": {
        "name": "Altria Theater",
        "cat": "arts",
        "addr": "6 N Laurel St · Historic Broadway/concert venue",
        "osm_id": "w229623395",
        "osm_name": "Altria Theater"
      }
    },
    {
      "type": "Feature",
      "geometry": {
        "type": "Point",
        "coordinates": [-77.4432661, 37.5466791]
      },
      "properties": {
        "name": "Virginia Repertory Theatre",
        "cat": "arts",
        "addr": "114 W Broad St",
        "osm_id": "n13446731749",
        "osm_name": "Virginia Repertory Theatre"
      }
    },
    {
      "type": "Feature",
      "geometry": {
        "type": "Point",
        "coordinates": [-77.4389145, 37.5401099]
      },
      "properties": {
        "name": "Richmond Shawarma & Falafel",
        "cat": "rest",
        "addr": "2 N 6th St · Closest restaurant",
        "osm_id": "n11428069611",
        "osm_name": "Richmond Shawarma & Falafel"
      }
    },
    {
      "type": "Feature",
      "geometry": {
        "type": "Point",
        "coordinates": [-77.4364791, 37.5427404]
      },
      "properties": {
        "name": "Fall Line Kitchen & Bar",
        "cat": "rest",
        "addr": "500 E Broad St · Hilton Downtown",
        "osm_id": "n3505593204",
        "osm_name": "Fall Line Kitchen & Bar"
      }
    },
    {
      "type": "Feature",
      "geometry": {
        "type": "Point",
        "coordinates": [-77.4382354, 37.5419112]
      },
      "properties": {
        "name": "Secret Sandwich Society",
        "cat": "rest",
        "addr": "501 E Grace St",
        "osm_id": "n7687401599",
        "osm_name": "Secret Sandwich Society"
      }
    },
    {
      "type": "Feature",
      "geometry": {
        "type": "Point",
        "coordinates": [-77.4385007, 37.5420806]
      },
      "properties": {
        "name": "Buttermilk and Honey",
        "cat": "rest",
        "addr": "415 E Grace St",
        "osm_id": "n7687401602",
        "osm_name": "Buttermilk and Honey"
      }
    },
    {
      "type": "Feature",
      "geometry": {
        "type": "Polygon",
        "coordinates": [
          [
            [-77.4368674, 37.5395695],
            [-77.4366659, 37.5394438],
            [-77.436632, 37.5394759],
            [-77.4368353, 37.5396035],
            [-77.4368674, 37.5395695]
          ]
        ]
      },
      "properties": {
        "name": "Sefton Coffee Company",
        "cat": "cafe",
        "addr": "24 N 8th St · Closest coffee shop",
        "osm_id": "w263127166",
        "osm_name": "Sefton Coffee Company"
      }
    },
    {
      "type": "Feature",
      "geometry": {
        "type": "Polygon",
        "coordinates": [
          [
            [-77.4389601, 37.5440607],
            [-77.4387136, 37.544318],
            [-77.4386679, 37.5442905],
            [-77.4386893, 37.5442682],
            [-77.4389144, 37.5440332],
            [-77.4389601, 37.5440607]
          ]
        ]
      },
      "properties": {
        "name": "Urban Hang Suite",
        "cat": "cafe",
        "addr": "304 E Broad St",
        "osm_id": "w321367816",
        "osm_name": "Urban Hang Suite"
      }
    },
    {
      "type": "Feature",
      "geometry": {
        "type": "Polygon",
        "coordinates": [
          [
            [-77.4393464, 37.5457884],
            [-77.4393862, 37.545745],
            [-77.4392473, 37.5456622],
            [-77.4392441, 37.5456603],
            [-77.4392034, 37.5457032],
            [-77.4393464, 37.5457884]
          ]
        ]
      },
      "properties": {
        "name": "Buna Kurs Ethiopian Cafe",
        "cat": "cafe",
        "addr": "402½ N 2nd St",
        "osm_id": "w303576688",
        "osm_name": "Buna Kurs"
      }
    },
    {
      "type": "Feature",
      "geometry": {
        "type": "Point",
        "coordinates": [-77.4440683, 37.5471652]
      },
      "properties": {
        "name": "Lift Coffee Shop",
        "cat": "cafe",
        "addr": "218 W Broad St",
        "osm_id": "n3328148228",
        "osm_name": "Lift Coffee Shop"
      }
    },
    {
      "type": "Feature",
      "geometry": {
        "type": "Point",
        "coordinates": [-77.445888, 37.5482647]
      },
      "properties": {
        "name": "Mudhouse Richmond",
        "cat": "cafe",
        "addr": "418 W Broad St",
        "osm_id": "n13243244907",
        "osm_name": "Mudhouse Coffee Roaster"
      }
    },
    {
      "type": "Feature",
      "geometry": {
        "type": "Point",
        "coordinates": [-77.4257346, 37.5343582]
      },
      "properties": {
        "name": "Ironclad Coffee Roasters",
        "cat": "cafe",
        "addr": "1805 E Grace St · Historic 1884 firehouse",
        "osm_id": "n12974546661",
        "osm_name": "Iron Clad Coffee"
      }
    },
    {
      "type": "Feature",
      "geometry": {
        "type": "Point",
        "coordinates": [-77.439285, 37.541188]
      },
      "properties": {
        "name": "Penny Lane Pub",
        "cat": "bar",
        "addr": "421 E Franklin St · British pub",
        "osm_id": "n3281551599",
        "osm_name": "Penny Lane Pub Restaurant"
      }
    },
    {
      "type": "Feature",
      "geometry": {
        "type": "Polygon",
        "coordinates": [
          [
            [-77.4384468, 37.5393831],
            [-77.4385382, 37.5394396],
            [-77.438723, 37.53925],
            [-77.4387915, 37.5391868],
            [-77.4386682, 37.5391137],
            [-77.4385499, 37.5392355],
            [-77.4385752, 37.5392509],
            [-77.4384468, 37.5393831]
          ]
        ]
      },
      "properties": {
        "name": "Capital Ale House",
        "cat": "bar",
        "addr": "619 E Main St · Massive beer selection",
        "osm_id": "w823401487",
        "osm_name": "Capital Ale House"
      }
    },
    {
      "type": "Feature",
      "geometry": {
        "type": "Point",
        "coordinates": [-77.4353683, 37.5419283]
      },
      "properties": {
        "name": "Vagabond",
        "cat": "bar",
        "addr": "700 E Broad St",
        "osm_id": "n3505593206",
        "osm_name": "Vagabond"
      }
    },
    {
      "type": "Feature",
      "geometry": {
        "type": "Point",
        "coordinates": [-77.4359395, 37.5375811]
      },
      "properties": {
        "name": "10th St YMCA",
        "cat": "fit",
        "addr": "919 E Main St · Closest gym",
        "osm_id": "n10552848507",
        "osm_name": "YMCA"
      }
    },
    {
      "type": "Feature",
      "geometry": {
        "type": "Polygon",
        "coordinates": [
          [
            [-77.4529368, 37.5443927],
            [-77.4533381, 37.5443984],
            [-77.4533815, 37.544399],
            [-77.4539445, 37.5444027],
            [-77.4539482, 37.5440439],
            [-77.4539516, 37.5440128],
            [-77.4539519, 37.5439921],
            [-77.4539935, 37.5439926],
            [-77.4539965, 37.5438329],
            [-77.453956, 37.5438325],
            [-77.4539567, 37.5437958],
            [-77.4539596, 37.5436794],
            [-77.4535895, 37.5436783],
            [-77.4533996, 37.5436761],
            [-77.4533464, 37.5436715],
            [-77.4529493, 37.5436683],
            [-77.4529452, 37.543995],
            [-77.4529439, 37.5440562],
            [-77.4529368, 37.5443927]
          ]
        ]
      },
      "properties": {
        "name": "Cary Street Gym (VCU)",
        "cat": "fit",
        "addr": "101 S Linden St",
        "osm_id": "w229722628",
        "osm_name": "Cary Street Gym"
      }
    },
    {
      "type": "Feature",
      "geometry": {
        "type": "Point",
        "coordinates": [-77.4589458, 37.5462153]
      },
      "properties": {
        "name": "Gold's Gym",
        "cat": "fit",
        "addr": "8 S Harvie St",
        "osm_id": "n7690715598",
        "osm_name": "Gold's Gym"
      }
    },
    {
      "type": "Feature",
      "geometry": {
        "type": "Point",
        "coordinates": [-77.4458331, 37.5460717]
      },
      "properties": {
        "name": "Davis Market",
        "cat": "groc",
        "addr": "301 W Grace St",
        "osm_id": "n7690715640",
        "osm_name": "Davis Market"
      }
    },
    {
      "type": "Feature",
      "geometry": {
        "type": "Polygon",
        "coordinates": [
          [
            [-77.4220283, 37.5307487],
            [-77.4223627, 37.5304071],
            [-77.4222919, 37.5303635],
            [-77.4222615, 37.5303265],
            [-77.4222366, 37.5303112],
            [-77.4222566, 37.5302908],
            [-77.4219714, 37.5301155],
            [-77.4219598, 37.5301273],
            [-77.4218316, 37.5300484],
            [-77.4215432, 37.530343],
            [-77.4214966, 37.5303143],
            [-77.4214268, 37.5302714],
            [-77.4213614, 37.5303382],
            [-77.4220283, 37.5307487]
          ]
        ]
      },
      "properties": {
        "name": "Farm Fresh Supermarket",
        "cat": "groc",
        "addr": "2320 E Main St · Closest full grocery",
        "osm_id": "w266956506",
        "osm_name": "Farm Fresh"
      }
    },
    {
      "type": "Feature",
      "geometry": {
        "type": "Polygon",
        "coordinates": [
          [
            [-77.421278, 37.526625],
            [-77.4213349, 37.5265562],
            [-77.4212526, 37.526509],
            [-77.4212833, 37.5264506],
            [-77.4212775, 37.526403],
            [-77.4209938, 37.5259883],
            [-77.4209658, 37.5259606],
            [-77.4209406, 37.5259484],
            [-77.4209288, 37.5259427],
            [-77.4209111, 37.5259358],
            [-77.4208864, 37.5259347],
            [-77.4208334, 37.5259382],
            [-77.4207856, 37.5259621],
            [-77.4207643, 37.5259837],
            [-77.4207451, 37.5260107],
            [-77.4207483, 37.5260474],
            [-77.4207617, 37.5261112],
            [-77.4208542, 37.5262251],
            [-77.4209843, 37.5264133],
            [-77.4210903, 37.5265431],
            [-77.4211908, 37.5266005],
            [-77.421278, 37.526625]
          ]
        ]
      },
      "properties": {
        "name": "Great Shiplock Park",
        "cat": "park",
        "addr": "Riverfront, James River Park System",
        "osm_id": "w152688694",
        "osm_name": "Great Shiplock Park - James River Park System"
      }
    },
    {
      "type": "Feature",
      "geometry": {
        "type": "Polygon",
        "coordinates": [
          [
            [-77.4296231, 37.5343167],
            [-77.4295771, 37.5343659],
            [-77.42949, 37.5344591],
            [-77.4294635, 37.5344435],
            [-77.4293953, 37.5345243],
            [-77.4294185, 37.5346424],
            [-77.4284051, 37.5357114],
            [-77.4283404, 37.5356729],
            [-77.4280769, 37.5355162],
            [-77.428003, 37.5354722],
            [-77.4290193, 37.5343996],
            [-77.4291732, 37.5343899],
            [-77.4292409, 37.5343125],
            [-77.429212, 37.5342955],
            [-77.4293169, 37.5341843],
            [-77.4293451, 37.5341532],
            [-77.4294669, 37.5342248],
            [-77.429496, 37.5342419],
            [-77.4295672, 37.5342838],
            [-77.4296231, 37.5343167]
          ]
        ]
      },
      "properties": {
        "name": "Main Street Station (Amtrak)",
        "cat": "trans",
        "addr": "1500 E Main St · Northeast Corridor",
        "osm_id": "w113030476",
        "osm_name": "Main Street Station"
      }
    },
    {
      "type": "Feature",
      "geometry": {
        "type": "Point",
        "coordinates": [-77.4385775, 37.5424255]
      },
      "properties": {
        "name": "Big Bamboo",
        "cat": "rest",
        "addr": "412 E Grace St · Asian fusion + tequila bar",
        "osm_id": "n4506702313",
        "osm_name": "Big Bamboo"
      }
    },
    {
      "type": "Feature",
      "geometry": {
        "type": "Point",
        "coordinates": [-77.4376142, 37.5415483]
      },
      "properties": {
        "name": "BrickFire Wood Oven",
        "cat": "rest",
        "addr": "525 E Grace St · Wood-fired pizza & pasta",
        "osm_id": "n13800402909",
        "osm_name": "BrickFire"
      }
    },
    {
      "type": "Feature",
      "geometry": {
        "type": "Point",
        "coordinates": [-77.4371817, 37.5399287]
      },
      "properties": {
        "name": "KAT'S Breakfast & Lunch",
        "cat": "rest",
        "addr": "701 E Franklin St",
        "osm_id": "n13800402910",
        "osm_name": "KAT’S Breakfast & Lunch"
      }
    },
    {
      "type": "Feature",
      "geometry": {
        "type": "Point",
        "coordinates": [-77.4379139, 37.5457449]
      },
      "properties": {
        "name": "Side Chic",
        "cat": "rest",
        "addr": "219 E Clay St · Fried chicken specialist",
        "osm_id": "n13800402911",
        "osm_name": "Side Chic"
      }
    },
    {
      "type": "Feature",
      "geometry": {
        "type": "Point",
        "coordinates": [-77.4417232, 37.5416016]
      },
      "properties": {
        "name": "Nami",
        "cat": "rest",
        "addr": "218 E Main St · Sushi",
        "osm_id": "n7687401632",
        "osm_name": "Nami"
      }
    },
    {
      "type": "Feature",
      "geometry": {
        "type": "Point",
        "coordinates": [-77.4441936, 37.5413962]
      },
      "properties": {
        "name": "Patio Thai",
        "cat": "rest",
        "addr": "103 E Cary St · Thai",
        "osm_id": "n7251394688",
        "osm_name": "The Patio Thai Restaurant"
      }
    },
    {
      "type": "Feature",
      "geometry": {
        "type": "Point",
        "coordinates": [-77.4455177, 37.5415927]
      },
      "properties": {
        "name": "Triple Crossing",
        "cat": "bar",
        "addr": "113 S Foushee St · Downtown brewery & taproom",
        "osm_id": "n2951721201",
        "osm_name": "Triple Crossing Beer - Downtown"
      }
    },
    {
      "type": "Feature",
      "geometry": {
        "type": "Point",
        "coordinates": [-77.4391441, 37.5384306]
      },
      "properties": {
        "name": "Dunkin' Donuts",
        "cat": "cafe",
        "addr": "600 E Canal St",
        "osm_id": "n10965275728",
        "osm_name": "Dunkin'"
      }
    },
    {
      "type": "Feature",
      "geometry": {
        "type": "Point",
        "coordinates": [-77.4366792, 37.5390617]
      },
      "properties": {
        "name": "Mini Mart",
        "cat": "groc",
        "addr": "Convenience store",
        "osm_id": "n10250003774",
        "osm_name": "Mini-Mart"
      }
    },
    {
      "type": "Feature",
      "geometry": {
        "type": "Polygon",
        "coordinates": [
          [
            [-77.4537866, 37.5555086],
            [-77.4533187, 37.5560056],
            [-77.4535341, 37.556133],
            [-77.4535064, 37.5561624],
            [-77.4536214, 37.5562304],
            [-77.453539, 37.5563179],
            [-77.4537515, 37.5564436],
            [-77.453837, 37.5563528],
            [-77.4538656, 37.5563697],
            [-77.453887, 37.556347],
            [-77.4539241, 37.5563693],
            [-77.4543949, 37.5558819],
            [-77.4537866, 37.5555086]
          ]
        ]
      },
      "properties": {
        "name": "Kroger",
        "cat": "groc",
        "addr": "901 N Lombardy St · Full-service grocery",
        "osm_id": "w236488104",
        "osm_name": "Kroger"
      }
    },
    {
      "type": "Feature",
      "geometry": {
        "type": "Polygon",
        "coordinates": [
          [
            [-77.4415888, 37.5498138],
            [-77.4431019, 37.550744],
            [-77.4431322, 37.5507348],
            [-77.4431245, 37.5506738],
            [-77.4428346, 37.5489751],
            [-77.4425541, 37.5488087],
            [-77.4424026, 37.5487189],
            [-77.4423821, 37.5487067],
            [-77.4422724, 37.5487107],
            [-77.4419384, 37.5490485],
            [-77.4418125, 37.5489749],
            [-77.4416811, 37.5491204],
            [-77.4416656, 37.5491376],
            [-77.4420048, 37.5493418],
            [-77.4415888, 37.5498138]
          ]
        ]
      },
      "properties": {
        "name": "Abner Clay Park",
        "cat": "park",
        "addr": "Jackson Ward neighborhood park",
        "osm_id": "w266499307",
        "osm_name": "Abner Clay Park"
      }
    },
    {
      "type": "Feature",
      "geometry": {
        "type": "Polygon",
        "coordinates": [
          [
            [-77.4329274, 37.5431004],
            [-77.4327853, 37.5430164],
            [-77.4325936, 37.5429032],
            [-77.4322857, 37.5427212],
            [-77.4314874, 37.5435706],
            [-77.4318107, 37.5437616],
            [-77.4320241, 37.5438877],
            [-77.432129, 37.5439497],
            [-77.4324989, 37.5435562],
            [-77.4326015, 37.543447],
            [-77.4329274, 37.5431004]
          ]
        ]
      },
      "properties": {
        "name": "GRTC Bus Transfer Station",
        "cat": "trans",
        "addr": "Downtown bus transfer station · GRTC",
        "osm_id": "w44888569",
        "osm_name": "Downtown Transfer Station"
      }
    },
    {
      "type": "Feature",
      "geometry": {
        "type": "Point",
        "coordinates": [-77.4378655, 37.543047]
      },
      "properties": {
        "name": "Nearest Pulse BRT Bus Stop",
        "cat": "trans",
        "addr": "Convention Center Eastbound · GRTC Pulse BRT",
        "osm_id": "n7022705950",
        "osm_name": "Convention Center Eastbound Pulse Stop"
      }
    },
    {
      "type": "Feature",
      "geometry": {
        "type": "Polygon",
        "coordinates": [
          [
            [-77.4342729, 37.540312],
            [-77.4338881, 37.5400826],
            [-77.4335039, 37.5398571],
            [-77.4334039, 37.5397986],
            [-77.4334705, 37.5397276],
            [-77.4326005, 37.5392072],
            [-77.4324969, 37.539311],
            [-77.4317673, 37.5388744],
            [-77.4318475, 37.5387179],
            [-77.4318585, 37.5386136],
            [-77.4318695, 37.5384165],
            [-77.4319206, 37.5382253],
            [-77.432012, 37.5379935],
            [-77.432107, 37.5377936],
            [-77.4322093, 37.5376053],
            [-77.4323883, 37.5373474],
            [-77.432494, 37.5371597],
            [-77.4325851, 37.5369878],
            [-77.4326326, 37.5369411],
            [-77.4326913, 37.5369413],
            [-77.4336275, 37.5374688],
            [-77.4357605, 37.5387373],
            [-77.4342729, 37.540312]
          ]
        ]
      },
      "properties": {
        "name": "Capitol Square",
        "cat": "park",
        "addr": "Grounds of the Virginia State Capitol",
        "osm_id": "w113023443",
        "osm_name": "Capitol Square"
      }
    },
    {
      "type": "Feature",
      "geometry": {
        "type": "Polygon",
        "coordinates": [
          [
            [-77.45134, 37.5459346],
            [-77.4513961, 37.5459453],
            [-77.4514181, 37.5459642],
            [-77.4514374, 37.5459984],
            [-77.4514211, 37.5470783],
            [-77.4514107, 37.5471366],
            [-77.4513772, 37.5472002],
            [-77.4513462, 37.5472451],
            [-77.4506407, 37.5480016],
            [-77.4505938, 37.548009],
            [-77.4490737, 37.5470953],
            [-77.4490444, 37.5470677],
            [-77.4490365, 37.5470339],
            [-77.4490398, 37.546994],
            [-77.4490931, 37.5468821],
            [-77.4491346, 37.5467711],
            [-77.4491648, 37.5466737],
            [-77.4491822, 37.5465868],
            [-77.4491939, 37.5464715],
            [-77.4491984, 37.5460426],
            [-77.4491835, 37.5460024],
            [-77.4491877, 37.54596],
            [-77.4492068, 37.5459284],
            [-77.4492352, 37.545915],
            [-77.4492761, 37.545913],
            [-77.4502467, 37.5459255],
            [-77.4504284, 37.5459286],
            [-77.45134, 37.5459346]
          ]
        ]
      },
      "properties": {
        "name": "Monroe Park",
        "cat": "park",
        "addr": "620 W Main St · Historic public park",
        "osm_id": "w45087752",
        "osm_name": "Monroe Park"
      }
    },
    {
      "type": "Feature",
      "geometry": {
        "type": "Polygon",
        "coordinates": [
          [
            [-77.4354412, 37.5419365],
            [-77.4351074, 37.5422914],
            [-77.4350355, 37.5422489],
            [-77.4350652, 37.5422174],
            [-77.4347863, 37.5420525],
            [-77.4350905, 37.5417291],
            [-77.4354412, 37.5419365]
          ]
        ]
      },
      "properties": {
        "name": "The National Theater",
        "cat": "arts",
        "addr": "708 East Broad Street · Historic concert hall",
        "osm_id": "w224757090",
        "osm_name": "The National"
      }
    },
    {
      "type": "Feature",
      "geometry": {
        "type": "Point",
        "coordinates": [-77.4421909, 37.53609271]
      },
      "properties": {
        "name": "CoStar Group",
        "cat": "emp",
        "addr": "Fortune 500 commercial real-estate analytics",
        "osm_id": "w1193277135",
        "osm_name": "CoStar Group"
      }
    },
    {
      "type": "Feature",
      "geometry": {
        "type": "Polygon",
        "coordinates": [
          [
            [-77.4385874, 37.5366782],
            [-77.4388145, 37.5367987],
            [-77.439105, 37.5369744],
            [-77.4390949, 37.536986],
            [-77.4391159, 37.5369982],
            [-77.4392562, 37.5370794],
            [-77.4398021, 37.5373953],
            [-77.4400614, 37.5371522],
            [-77.4400372, 37.5371248],
            [-77.4399678, 37.5370808],
            [-77.4398777, 37.5369543],
            [-77.4399852, 37.5368307],
            [-77.4402625, 37.5367454],
            [-77.4403561, 37.5367922],
            [-77.4404323, 37.5367152],
            [-77.4391178, 37.5359737],
            [-77.4390699, 37.5360248],
            [-77.4391726, 37.5360908],
            [-77.4391833, 37.5363353],
            [-77.4390662, 37.5364552],
            [-77.438842, 37.5364399],
            [-77.4387421, 37.5363828],
            [-77.4385791, 37.5365459],
            [-77.4385687, 37.5365616],
            [-77.4385648, 37.5365801],
            [-77.4385664, 37.5366186],
            [-77.4385705, 37.5366587],
            [-77.4385874, 37.5366782]
          ]
        ]
      },
      "properties": {
        "name": "Kanawha Plaza",
        "cat": "park",
        "addr": "Public park",
        "osm_id": "w225274659",
        "osm_name": "Kanawha Plaza"
      }
    },
    {
      "type": "Feature",
      "geometry": {
        "type": "MultiPolygon",
        "coordinates": [
          [
            [
              [-77.446285, 37.5355487],
              [-77.4463073, 37.5355216],
              [-77.4464521, 37.5355117],
              [-77.446439, 37.5355932],
              [-77.4464177, 37.5356261],
              [-77.446285, 37.5355487]
            ]
          ],
          [
            [
              [-77.4460623, 37.5357888],
              [-77.4461015, 37.5357464],
              [-77.446285, 37.5355487],
              [-77.4464177, 37.5356261],
              [-77.4464556, 37.5356482],
              [-77.4462328, 37.5358883],
              [-77.4461586, 37.535845],
              [-77.4460623, 37.5357888]
            ]
          ],
          [
            [
              [-77.4459944, 37.5359577],
              [-77.4459849, 37.5358686],
              [-77.4460165, 37.5358673],
              [-77.4460102, 37.5357618],
              [-77.4460514, 37.5357216],
              [-77.4461015, 37.5357464],
              [-77.4460623, 37.5357888],
              [-77.4461586, 37.535845],
              [-77.446129, 37.5359037],
              [-77.4460862, 37.5359364],
              [-77.4460419, 37.5359515],
              [-77.4459944, 37.5359577]
            ]
          ]
        ]
      },
      "properties": {
        "name": "Allianz Amphitheater",
        "cat": "arts",
        "addr": "Riverfront amphitheater · Live music venue",
        "osm_id": "r19446562",
        "osm_name": "Allianz Amphitheater at Riverside"
      }
    },
    {
      "type": "Feature",
      "geometry": {
        "type": "Polygon",
        "coordinates": [
          [
            [-77.4413767, 37.534289],
            [-77.4403804, 37.5339382],
            [-77.4400486, 37.5338257],
            [-77.4403916, 37.5338475],
            [-77.4407093, 37.5334426],
            [-77.4407998, 37.5333248],
            [-77.4416798, 37.533517],
            [-77.4417015, 37.5335217],
            [-77.4423123, 37.5336256],
            [-77.4430688, 37.5336894],
            [-77.4438539, 37.533916],
            [-77.4442277, 37.5341068],
            [-77.4442998, 37.5341436],
            [-77.4443571, 37.5341737],
            [-77.4445462, 37.5342317],
            [-77.4447096, 37.5345442],
            [-77.4443365, 37.5346973],
            [-77.4438974, 37.5348083],
            [-77.4436315, 37.5348394],
            [-77.4429364, 37.5348196],
            [-77.44236, 37.5345499],
            [-77.4416166, 37.5343421],
            [-77.4413767, 37.534289]
          ]
        ]
      },
      "properties": {
        "name": "Brown's Island",
        "cat": "park",
        "addr": "James River island park · Walking paths & concerts",
        "osm_id": "w76314480",
        "osm_name": "Brown's Island"
      }
    },
    {
      "type": "Feature",
      "geometry": {
        "type": "Polygon",
        "coordinates": [
          [
            [-77.4577065, 37.527249],
            [-77.4575027, 37.527164],
            [-77.4571862, 37.5270857],
            [-77.4567106, 37.5270531],
            [-77.456367, 37.5268538],
            [-77.455833, 37.5267024],
            [-77.4556318, 37.5269221],
            [-77.4553408, 37.5270772],
            [-77.4549814, 37.5272235],
            [-77.454622, 37.5273324],
            [-77.4543859, 37.5272558],
            [-77.454225, 37.5272388],
            [-77.4540748, 37.5272558],
            [-77.4539233, 37.5273064],
            [-77.453624, 37.5272419],
            [-77.4533078, 37.5272662],
            [-77.4527863, 37.527345],
            [-77.4526264, 37.5274345],
            [-77.4522938, 37.5275877],
            [-77.4519398, 37.5278004],
            [-77.4517037, 37.527877],
            [-77.4511405, 37.5280829],
            [-77.4506684, 37.5282786],
            [-77.4503766, 37.5283844],
            [-77.4501204, 37.5284884],
            [-77.4498754, 37.5287622],
            [-77.4496331, 37.5290171],
            [-77.4494817, 37.5290821],
            [-77.4493446, 37.529266],
            [-77.4492576, 37.5294851],
            [-77.4490215, 37.5298765],
            [-77.4488391, 37.5302764],
            [-77.4486675, 37.5305401],
            [-77.4485602, 37.5307613],
            [-77.4484207, 37.530957],
            [-77.4482812, 37.5311272],
            [-77.4480774, 37.5312548],
            [-77.4478843, 37.5313739],
            [-77.4478092, 37.5314505],
            [-77.4477877, 37.5316458],
            [-77.4481203, 37.5317053],
            [-77.4486031, 37.5316628],
            [-77.4491288, 37.5316032],
            [-77.449279, 37.5315181],
            [-77.4494185, 37.5315777],
            [-77.4495043, 37.5316798],
            [-77.4497404, 37.5316202],
            [-77.4502875, 37.5315777],
            [-77.4505128, 37.5315352],
            [-77.4508347, 37.531442],
            [-77.4510493, 37.5313059],
            [-77.4513926, 37.5311102],
            [-77.4517467, 37.5309825],
            [-77.4520685, 37.5308549],
            [-77.4523797, 37.5307528],
            [-77.452841, 37.5306167],
            [-77.4532916, 37.5303955],
            [-77.4536564, 37.5302168],
            [-77.4540533, 37.5301147],
            [-77.4542036, 37.5300296],
            [-77.4543001, 37.5299871],
            [-77.4543417, 37.5300295],
            [-77.4543509, 37.5300699],
            [-77.4543551, 37.5301486],
            [-77.4544114, 37.5301465],
            [-77.4544972, 37.5301337],
            [-77.4545938, 37.5300912],
            [-77.4546433, 37.5300593],
            [-77.4546755, 37.5300401],
            [-77.4547425, 37.5300188],
            [-77.4548176, 37.5300125],
            [-77.454921, 37.5300359],
            [-77.4550563, 37.5300125],
            [-77.4551261, 37.5300231],
            [-77.4551678, 37.5299593],
            [-77.4552107, 37.5299295],
            [-77.4552214, 37.5298763],
            [-77.4551824, 37.5298083],
            [-77.4551931, 37.5297274],
            [-77.4552226, 37.5296742],
            [-77.4552322, 37.5296211],
            [-77.4552682, 37.5295785],
            [-77.4552912, 37.529536],
            [-77.4553514, 37.5294892],
            [-77.4554575, 37.5295168],
            [-77.4555391, 37.5295147],
            [-77.4556545, 37.5295168],
            [-77.455723, 37.5295147],
            [-77.4558276, 37.5294658],
            [-77.4558759, 37.5294169],
            [-77.4559442, 37.5293658],
            [-77.4560166, 37.5293658],
            [-77.4560434, 37.5293403],
            [-77.4559978, 37.5292978],
            [-77.4559951, 37.5292446],
            [-77.4560663, 37.5292212],
            [-77.4562621, 37.529219],
            [-77.4563384, 37.5291616],
            [-77.4563518, 37.5291403],
            [-77.4562863, 37.5291042],
            [-77.4561963, 37.5290978],
            [-77.4561066, 37.5291382],
            [-77.4559844, 37.5291744],
            [-77.4558355, 37.5291552],
            [-77.4564564, 37.5288466],
            [-77.4569448, 37.5284641],
            [-77.457162, 37.5282566],
            [-77.4572868, 37.5279451],
            [-77.457404, 37.5279235],
            [-77.4574972, 37.5278602],
            [-77.457517, 37.5277792],
            [-77.4574346, 37.5277023],
            [-77.4575002, 37.5275629],
            [-77.4575563, 37.5274703],
            [-77.457669, 37.5274175],
            [-77.4577065, 37.527249]
          ]
        ]
      },
      "properties": {
        "name": "Belle Isle",
        "cat": "park",
        "addr": "James River island · City park & nature reserve",
        "osm_id": "r6243498",
        "osm_name": "Belle Isle"
      }
    },
    {
      "type": "Feature",
      "geometry": {
        "type": "Point",
        "coordinates": [-77.4401458, 37.5407296]
      },
      "properties": {
        "name": "Cafe Rustica",
        "cat": "rest",
        "addr": "414 E Main St · German",
        "osm_id": "w321367811",
        "osm_name": "Cafe Rustica"
      }
    },
    {
      "type": "Feature",
      "geometry": {
        "type": "Point",
        "coordinates": [-77.439198, 37.539809]
      },
      "properties": {
        "name": "Chicano's Cocina Bar & Grill",
        "cat": "rest",
        "addr": "523 E Main St · Mexican",
        "osm_id": "n7687401622",
        "osm_name": "Chicano's Cocina Bar & Grill"
      }
    },
    {
      "type": "Feature",
      "geometry": {
        "type": "Point",
        "coordinates": [-77.4385342, 37.5410691]
      },
      "properties": {
        "name": "Hotel Greene",
        "cat": "bar",
        "addr": "508 E Franklin St · Indoor mini-golf course & bar",
        "osm_id": "n10196204781",
        "osm_name": "Hotel Greene"
      }
    },
    {
      "type": "Feature",
      "geometry": {
        "type": "Point",
        "coordinates": [-77.4436856, 37.5443856]
      },
      "properties": {
        "name": "Downtown YMCA",
        "cat": "fit",
        "addr": "2 W Franklin St · YMCA Downtown branch",
        "osm_id": "w321391718",
        "osm_name": "YMCA"
      }
    },
    {
      "type": "Feature",
      "geometry": {
        "type": "Point",
        "coordinates": [-77.439583, 37.5400295]
      },
      "properties": {
        "name": "KHM Convenience Store",
        "cat": "groc",
        "addr": "507A E Main St · Convenience store",
        "osm_id": "n13085507563",
        "osm_name": "KHM Convenience Store"
      }
    },
    {
      "type": "Feature",
      "geometry": {
        "type": "Point",
        "coordinates": [-77.4415252, 37.5437914]
      },
      "properties": {
        "name": "Perly’s",
        "cat": "rest",
        "addr": "111 East Grace Street",
        "osm_id": "w321367843",
        "osm_name": "Perly’s"
      }
    },
    {
      "type": "Feature",
      "geometry": {
        "type": "Point",
        "coordinates": [-77.4415704, 37.5438709]
      },
      "properties": {
        "name": "Stella’s Grocery",
        "cat": "groc",
        "addr": "109 East Grace Street · Convenience store",
        "osm_id": "n12156408361",
        "osm_name": "Stella’s Grocery"
      }
    },
    {
      "type": "Feature",
      "geometry": {
        "type": "Point",
        "coordinates": [-77.4311182, 37.5414946]
      },
      "properties": {
        "name": "The Valentine",
        "cat": "lib",
        "addr": "1015 E Clay St · Museum of Richmond's history (c.1812 landmark house)",
        "osm_id": "w224601768",
        "osm_name": "The Valentine"
      }
    },
    {
      "type": "Feature",
      "geometry": {
        "type": "Point",
        "coordinates": [-77.4413499, 37.550047]
      },
      "properties": {
        "name": "Black History Museum & Cultural Center of Virginia",
        "cat": "lib",
        "addr": "122 W Leigh St · Museum of Black history & culture in Virginia",
        "osm_id": "n13351826899",
        "osm_name": "Black History Museum and Cultural Center of Virginia"
      }
    },
    {
      "type": "Feature",
      "geometry": {
        "type": "Point",
        "coordinates": [-77.4454836, 37.5356232]
      },
      "properties": {
        "name": "American Civil War Museum",
        "cat": "lib",
        "addr": "480 Tredegar St · Riverfront Civil War history museum",
        "osm_id": "w822723703",
        "osm_name": "American Civil War Museum"
      }
    },
    {
      "type": "Feature",
      "geometry": {
        "type": "Point",
        "coordinates": [-77.4366145, 37.5335442]
      },
      "properties": {
        "name": "Padel Plant",
        "cat": "fit",
        "addr": "1201 Haxall Point · Padel & pickleball club",
        "osm_id": "w120866241",
        "osm_name": "The Plant RVA"
      }
    },
    {
      "type": "Feature",
      "geometry": {
        "type": "Point",
        "coordinates": [-77.4340381, 37.535349]
      },
      "properties": {
        "name": "Urban Farmhouse Market & Cafe",
        "cat": "cafe",
        "addr": "1217 E Cary St · Local roasts & organic brunch",
        "osm_id": "n846282134",
        "osm_name": "Urban Farmhouse Market & Cafe"
      }
    }
  ]
}
